STARLINK-31272          
1 59162U 24044L   26068.46157529 -.00000205  00000+0  20586-5 0  9991
2 59162  42.9999 108.0604 0001040 254.0222 106.0515 15.27575096113536
FLOCK 4G-15             
1 62678U 25009BX  26068.71779869  .00012647  00000+0  47575-3 0  9991
2 62678  97.4054 151.1927 0003699 316.8208  43.2740 15.27266411121358
